{
  "type": "FeatureCollection",
  "features": [
    {
      "type": "Feature",
      "properties": {
        "norad_id": 46805,
        "name": "COSMOS 2547 (705K)",
        "group": "glo-ops",
        "lat": 19.712092063415085,
        "lon": -151.88060350349343,
        "alt_km": 19142.021637861013,
        "timestamp": "2025-12-24T09:46:31.265368+00:00",
        "meta_object_name": "COSMOS 2547 (705K)",
        "meta_object_id": "2020-075A",
        "meta_epoch": "2025-12-22T23:18:06.838272",
        "meta_mean_motion": 2.13100223,
        "meta_eccentricity": 0.00061117,
        "meta_inclination": 64.5968,
        "meta_ra_of_asc_node": 198.3547,
        "meta_arg_of_pericenter": 227.5721,
        "meta_mean_anomaly": 132.44,
        "meta_ephemeris_type": 0,
        "meta_classification_type": "U",
        "meta_norad_cat_id": 46805,
        "meta_element_set_no": 999,
        "meta_rev_at_epoch": 4015,
        "meta_bstar": 0,
        "meta_mean_motion_dot": 9.5e-07,
        "meta_mean_motion_ddot": 0,
        "tle_line1": "1 46805U 20075A   25356.97091248  .00000095  00000+0  00000+0 0  9990",
        "tle_line2": "2 46805  64.5968 198.3547 0006111 227.5721 132.4400  2.13100223 40153"
      },
      "geometry": {
        "type": "Point",
        "coordinates": [
          -151.88060350349343,
          19.712092063415085
        ]
      }
    },
    {
      "type": "Feature",
      "properties": {
        "norad_id": 52984,
        "name": "COSMOS 2557 (706K)",
        "group": "glo-ops",
        "lat": -60.59961282972983,
        "lon": -161.15040051122511,
        "alt_km": 19104.599512089062,
        "timestamp": "2025-12-24T09:46:31.265380+00:00",
        "meta_object_name": "COSMOS 2557 (706K)",
        "meta_object_id": "2022-075A",
        "meta_epoch": "2025-12-24T01:47:30.458112",
        "meta_mean_motion": 2.13102043,
        "meta_eccentricity": 0.0013531,
        "meta_inclination": 64.4034,
        "meta_ra_of_asc_node": 320.6532,
        "meta_arg_of_pericenter": 278.4294,
        "meta_mean_anomaly": 81.4177,
        "meta_ephemeris_type": 0,
        "meta_classification_type": "U",
        "meta_norad_cat_id": 52984,
        "meta_element_set_no": 999,
        "meta_rev_at_epoch": 2698,
        "meta_bstar": 0,
        "meta_mean_motion_dot": -3.6e-07,
        "meta_mean_motion_ddot": 0,
        "tle_line1": "1 52984U 22075A   25358.07465808 -.00000036  00000+0  00000+0 0  9993",
        "tle_line2": "2 52984  64.4034 320.6532 0013531 278.4294  81.4177  2.13102043 26980"
      },
      "geometry": {
        "type": "Point",
        "coordinates": [
          -161.15040051122511,
          -60.59961282972983
        ]
      }
    },
    {
      "type": "Feature",
      "properties": {
        "norad_id": 54031,
        "name": "COSMOS 2559 (707K)",
        "group": "glo-ops",
        "lat": 30.12124284724,
        "lon": -23.128581192496867,
        "alt_km": 19153.69994204605,
        "timestamp": "2025-12-24T09:46:31.265391+00:00",
        "meta_object_name": "COSMOS 2559 (707K)",
        "meta_object_id": "2022-130A",
        "meta_epoch": "2025-12-22T22:55:41.357856",
        "meta_mean_motion": 2.13101293,
        "meta_eccentricity": 0.00115202,
        "meta_inclination": 64.3764,
        "meta_ra_of_asc_node": 320.7818,
        "meta_arg_of_pericenter": 191.7582,
        "meta_mean_anomaly": 168.2129,
        "meta_ephemeris_type": 0,
        "meta_classification_type": "U",
        "meta_norad_cat_id": 54031,
        "meta_element_set_no": 999,
        "meta_rev_at_epoch": 2493,
        "meta_bstar": 0,
        "meta_mean_motion_dot": -4e-07,
        "meta_mean_motion_ddot": 0,
        "tle_line1": "1 54031U 22130A   25356.95533979 -.00000040  00000+0  00000+0 0  9995",
        "tle_line2": "2 54031  64.3764 320.7818 0011520 191.7582 168.2129  2.13101293 24935"
      },
      "geometry": {
        "type": "Point",
        "coordinates": [
          -23.128581192496867,
          30.12124284724
        ]
      }
    },
    {
      "type": "Feature",
      "properties": {
        "norad_id": 54377,
        "name": "COSMOS 2564 (761)",
        "group": "glo-ops",
        "lat": 23.867783478874316,
        "lon": 6.4501922032548515,
        "alt_km": 19113.34128254908,
        "timestamp": "2025-12-24T09:46:31.265402+00:00",
        "meta_object_name": "COSMOS 2564 (761)",
        "meta_object_id": "2022-161A",
        "meta_epoch": "2025-12-22T19:11:15.319968",
        "meta_mean_motion": 2.13102038,
        "meta_eccentricity": 0.00085475,
        "meta_inclination": 64.7388,
        "meta_ra_of_asc_node": 198.5646,
        "meta_arg_of_pericenter": 203.7096,
        "meta_mean_anomaly": 156.316,
        "meta_ephemeris_type": 0,
        "meta_classification_type": "U",
        "meta_norad_cat_id": 54377,
        "meta_element_set_no": 999,
        "meta_rev_at_epoch": 2387,
        "meta_bstar": 0,
        "meta_mean_motion_dot": 9.5e-07,
        "meta_mean_motion_ddot": 0,
        "tle_line1": "1 54377U 22161A   25356.79948287  .00000095  00000+0  00000+0 0  9995",
        "tle_line2": "2 54377  64.7388 198.5646 0008547 203.7096 156.3160  2.13102038 23876"
      },
      "geometry": {
        "type": "Point",
        "coordinates": [
          6.4501922032548515,
          23.867783478874316
        ]
      }
    },
    {
      "type": "Feature",
      "properties": {
        "norad_id": 57517,
        "name": "COSMOS 2569 (703K)",
        "group": "glo-ops",
        "lat": 33.03848177641867,
        "lon": -118.9394408143012,
        "alt_km": 19148.499917823912,
        "timestamp": "2025-12-24T09:46:31.265413+00:00",
        "meta_object_name": "COSMOS 2569 (703K)",
        "meta_object_id": "2023-114A",
        "meta_epoch": "2025-12-23T18:01:56.220096",
        "meta_mean_motion": 2.13103974,
        "meta_eccentricity": 0.0010936,
        "meta_inclination": 65.1997,
        "meta_ra_of_asc_node": 78.5414,
        "meta_arg_of_pericenter": 287.1018,
        "meta_mean_anomaly": 72.827,
        "meta_ephemeris_type": 0,
        "meta_classification_type": "U",
        "meta_norad_cat_id": 57517,
        "meta_element_set_no": 999,
        "meta_rev_at_epoch": 1852,
        "meta_bstar": 0,
        "meta_mean_motion_dot": 1e-08,
        "meta_mean_motion_ddot": 0,
        "tle_line1": "1 57517U 23114A   25357.75134514  .00000001  00000+0  00000+0 0  9997",
        "tle_line2": "2 57517  65.1997  78.5414 0010936 287.1018  72.8270  2.13103974 18521"
      },
      "geometry": {
        "type": "Point",
        "coordinates": [
          -118.9394408143012,
          33.03848177641867
        ]
      }
    },
    {
      "type": "Feature",
      "properties": {
        "norad_id": 63130,
        "name": "COSMOS 2584 (704K)",
        "group": "glo-ops",
        "lat": -44.138457917504994,
        "lon": -74.33673165957867,
        "alt_km": 19115.63821579058,
        "timestamp": "2025-12-24T09:46:31.265424+00:00",
        "meta_object_name": "COSMOS 2584 (704K)",
        "meta_object_id": "2025-042A",
        "meta_epoch": "2025-12-23T15:18:41.586912",
        "meta_mean_motion": 2.13102998,
        "meta_eccentricity": 0.00077597,
        "meta_inclination": 64.9817,
        "meta_ra_of_asc_node": 78.7748,
        "meta_arg_of_pericenter": 220.3621,
        "meta_mean_anomaly": 139.628,
        "meta_ephemeris_type": 0,
        "meta_classification_type": "U",
        "meta_norad_cat_id": 63130,
        "meta_element_set_no": 999,
        "meta_rev_at_epoch": 630,
        "meta_bstar": 0,
        "meta_mean_motion_dot": 1e-08,
        "meta_mean_motion_ddot": 0,
        "tle_line1": "1 63130U 25042A   25357.63798133  .00000001  00000+0  00000+0 0  9997",
        "tle_line2": "2 63130  64.9817  78.7748 0007759 220.3621 139.6280  2.13102998  6308"
      },
      "geometry": {
        "type": "Point",
        "coordinates": [
          -74.33673165957867,
          -44.138457917504994
        ]
      }
    },
    {
      "type": "Feature",
      "properties": {
        "norad_id": 65590,
        "name": "COSMOS 2596 (708K)",
        "group": "glo-ops",
        "lat": -10.240548400365125,
        "lon": -43.83591870561305,
        "alt_km": 19104.7590574783,
        "timestamp": "2025-12-24T09:46:31.265435+00:00",
        "meta_object_name": "COSMOS 2596 (708K)",
        "meta_object_id": "2025-206B",
        "meta_epoch": "2025-12-24T04:32:38.772960",
        "meta_mean_motion": 2.13100301,
        "meta_eccentricity": 0.0014089,
        "meta_inclination": 64.7381,
        "meta_ra_of_asc_node": 321.0775,
        "meta_arg_of_pericenter": 307.5412,
        "meta_mean_anomaly": 233.8,
        "meta_ephemeris_type": 0,
        "meta_classification_type": "U",
        "meta_norad_cat_id": 65590,
        "meta_element_set_no": 999,
        "meta_rev_at_epoch": 218,
        "meta_bstar": 0,
        "meta_mean_motion_dot": -3.5e-07,
        "meta_mean_motion_ddot": 0,
        "tle_line1": "1 65590U 25206B   25358.18933765 -.00000035  00000+0  00000+0 0  9992",
        "tle_line2": "2 65590  64.7381 321.0775 0014089 307.5412 233.8000  2.13100301  2183"
      },
      "geometry": {
        "type": "Point",
        "coordinates": [
          -43.83591870561305,
          -10.240548400365125
        ]
      }
    }
  ]
}